NORAD_CAT_ID,OBJECT_NAME,OBJECT_TYPE,EPOCH,MEAN_MOTION,ECCENTRICITY,INCLINATION,RA_OF_ASC_NODE,ARG_OF_PERICENTER,MEAN_ANOMALY,BSTAR,MEAN_MOTION_DOT,MEAN_MOTION_DDOT,TLE_LINE0,TLE_LINE1,TLE_LINE2,SEMIMAJOR_AXIS,PERIOD,APOGEE,PERIGEE,DECAYED
53741.0,STARLINK-4614,PAYLOAD,2022-09-12 16:00:00,15.78056364,0.0001066999999999,53.2174,235.7122,67.0576,20.4417,-0.0077492,-0.0119543,0.0,0 STARLINK-4614,1 53741U 22107AT  22255.66667824 -.01195430  00000-0 -77492-2 0  9999,2 53741  53.2174 235.7122 0001067  67.0576  20.4417 15.78056364  1308,6714.085,91.251,336.666,335.2340000000001,0.0
53741.0,STARLINK-4614,PAYLOAD,2022-09-13 06:00:00,15.76537414,0.0001398,53.2173,232.8092,53.4989,108.2179,-0.008287,-0.01194264,0.0,0 STARLINK-4614,1 53741U 22107AT  22256.25001157 -.01194264  00000-0 -82870-2 0  9996,2 53741  53.2173 232.8092 0001398  53.4989 108.2179 15.76537414  1392,6718.397,91.339,341.201,339.3230000000001,0.0
53741.0,STARLINK-4614,PAYLOAD,2022-09-13 14:00:01,15.75671195,0.0001204,53.2174,231.1517,58.1703,195.9516,-0.0086366,-0.0119712,0.0,0 STARLINK-4614,1 53741U 22107AT  22256.58334491 -.01197120  00000-0 -86366-2 0  9990,2 53741  53.2174 231.1517 0001204  58.1703 195.9516 15.75671195  1302,6720.859,91.39,343.533,341.915,0.0
53741.0,STARLINK-4614,PAYLOAD,2022-09-13 20:00:01,15.75018087,0.0001190999999999,53.2173,229.9093,62.7569,169.9857,-0.0088587,-0.01193452,0.0,0 STARLINK-4614,1 53741U 22107AT  22256.83334491 -.01193452  00000-0 -88587-2 0  9999,2 53741  53.2173 229.9093 0001191  62.7569 169.9857 15.75018087  1484,6722.717,91.428,345.38199999999995,343.781,0.0
53741.0,STARLINK-4614,PAYLOAD,2022-09-13 22:00:00,15.74801702,0.0001064,53.2177,229.496,61.0461,284.4389,-0.0089582,-0.01195139,0.0,0 STARLINK-4614,1 53741U 22107AT  22256.91667824 -.01195139  00000-0 -89582-2 0  9997,2 53741  53.2177 229.4960 0001064  61.0461 284.4389 15.74801702  1305,6723.333000000001,91.44,345.913,344.482,0.0
53741.0,STARLINK-4614,PAYLOAD,2022-09-14 04:00:00,15.74021627,0.0001137,53.2175,228.2583,65.4632,257.8803,-0.0063552,-0.00837699,0.0,0 STARLINK-4614,1 53741U 22107AT  22257.16667824 -.00837699  00000-0 -63552-2 0  9997,2 53741  53.2175 228.2583 0001137  65.4632 257.8803 15.74021627  1530,6725.554,91.485,348.18300000000005,346.654,0.0
53741.0,STARLINK-4614,PAYLOAD,2022-09-14 14:00:01,15.73394306,9.76e-05,53.2131,226.194,71.0568,94.0437,-0.0013775999999999,-0.00191205,0.0,0 STARLINK-4614,1 53741U 22107AT  22257.58334491 -.00191205  00000-0 -13776-2 0  9993,2 53741  53.2131 226.1940 0000976  71.0568  94.0437 15.73394306  1605,6727.340999999999,91.522,349.86300000000006,348.55,0.0
53741.0,STARLINK-4614,PAYLOAD,2022-09-14 20:00:01,15.73243559,8.4e-05,53.2129,224.9552,80.82300000000002,61.1126,0.00024019,0.00033285,0.0,0 STARLINK-4614,1 53741U 22107AT  22257.83334491  .00033285  00000-0  24019-3 0  9995,2 53741  53.2129 224.9552 0000840  80.8230  61.1126 15.73243559  1648,6727.771,91.531,350.201,349.071,0.0
53741.0,STARLINK-4614,PAYLOAD,2022-09-14 22:00:00,15.73230075,9.43e-05,53.2136,224.5432,83.8529,170.3258,0.0002778,0.00038597,0.0,0 STARLINK-4614,1 53741U 22107AT  22257.91667824  .00038597  00000-0  27780-3 0  9992,2 53741  53.2136 224.5432 0000943  83.8529 170.3258 15.73230075  1308,6727.809,91.531,350.309,349.04,0.0
53741.0,STARLINK-4614,PAYLOAD,2022-09-15 04:00:00,15.73281085,0.0001012,53.214,223.3078,72.907,158.0011,-0.00084665,-0.00118191,0.0,0 STARLINK-4614,1 53741U 22107AT  22258.16667824 -.00118191  00000-0 -84665-3 0  9996,2 53741  53.2140 223.3078 0001012  72.9070 158.0011 15.73281085  1693,6727.6640000000025,91.528,350.21,348.848,0.0
53741.0,STARLINK-4614,PAYLOAD,2022-09-15 14:00:01,15.73207549,9.4e-05,53.2144,221.2449,75.1436,356.9939,-0.00034956,-0.00049404,0.0,0 STARLINK-4614,1 53741U 22107AT  22258.58334491 -.00049404  00000-0 -34956-3 0  9991,2 53741  53.2144 221.2449 0000940  75.1436 356.9939 15.73207549  1305,6727.874,91.533,350.371,349.106,0.0
53741.0,STARLINK-4614,PAYLOAD,2022-09-15 22:00:00,15.73150586,9.15e-05,53.2145,219.5947,86.4609,74.5945,0.00044696,0.00062442,0.0,0 STARLINK-4614,1 53741U 22107AT  22258.91667824  .00062442  00000-0  44696-3 0  9994,2 53741  53.2145 219.5947 0000915  86.4609  74.5945 15.73150586  1306,6728.036,91.536,350.517,349.285,0.0
53741.0,STARLINK-4614,PAYLOAD,2022-09-16 00:00:00,15.7317059,9.06e-05,53.2144,219.1829,82.4639,190.8078,0.00027075,0.000375,0.0,0 STARLINK-4614,1 53741U 22107AT  22259.00001157  .00037500  00000-0  27075-3 0  9995,2 53741  53.2144 219.1829 0000906  82.4639 190.8078 15.73170590  1822,6727.979,91.535,350.454,349.2340000000001,0.0
53741.0,STARLINK-4614,PAYLOAD,2022-09-16 14:00:01,15.73195797,0.0001223,53.2136,216.2963,84.816,254.0619,-0.00068443,-0.00095573,0.0,0 STARLINK-4614,1 53741U 22107AT  22259.58334491 -.00095573  00000-0 -68443-3 0  9998,2 53741  53.2136 216.2963 0001223  84.8160 254.0619 15.73195797  1301,6727.906999999997,91.533,350.595,348.949,0.0
53741.0,STARLINK-4614,PAYLOAD,2022-09-16 16:00:00,15.73139799,0.0001216,53.2136,215.8836,88.8882,2.2277,4.366600000000001e-05,5.497e-05,0.0,0 STARLINK-4614,1 53741U 22107AT  22259.66667824  .00005497  00000-0  43666-4 0  9991,2 53741  53.2136 215.8836 0001216  88.8882   2.2277 15.73139799  1934,6728.066999999999,91.537,350.75,349.11400000000015,0.0
53741.0,STARLINK-4614,PAYLOAD,2022-09-16 22:00:00,15.73141284,0.0001404,53.2137,214.6464,92.9314,334.8222,0.0004508999999999,0.00062977,0.0,0 STARLINK-4614,1 53741U 22107AT  22259.91667824  .00062977  00000-0  45090-3 0  9997,2 53741  53.2137 214.6464 0001404  92.9314 334.8222 15.73141284  1301,6728.063,91.537,350.872,348.983,0.0
53741.0,STARLINK-4614,PAYLOAD,2022-09-17 06:00:00,15.7316504,0.0001325,53.2139,212.9989,82.214,74.4227,0.00049939,0.00069946,0.0,0 STARLINK-4614,1 53741U 22107AT  22260.25001157  .00069946  00000-0  49939-3 0  9996,2 53741  53.2139 212.9989 0001325  82.2140  74.4227 15.73165040  2025,6727.995,91.535,350.751,348.968,0.0
53741.0,STARLINK-4614,PAYLOAD,2022-09-17 14:00:01,15.7320964,0.0001165,53.2139,211.3479,87.9138,157.6394,-0.00028698,-0.00040717,0.0,0 STARLINK-4614,1 53741U 22107AT  22260.58334491 -.00040717  00000-0 -28698-3 0  9998,2 53741  53.2139 211.3479 0001165  87.9138 157.6394 15.73209640  2072,6727.868,91.533,350.516,348.949,0.0
53741.0,STARLINK-4614,PAYLOAD,2022-09-17 22:00:00,15.73203518,0.0001118,53.214,209.698,94.062,240.4058,0.00029694,0.00041264,0.0,0 STARLINK-4614,1 53741U 22107AT  22260.91667824  .00041264  00000-0  29694-3 0  9997,2 53741  53.2140 209.6980 0001118  94.0620 240.4058 15.73203518  1305,6727.885,91.533,350.50199999999984,348.99800000000016,0.0
53741.0,STARLINK-4614,PAYLOAD,2022-09-18 14:00:01,15.73217758,8.47e-05,53.2133,206.3989,96.5239,55.941,0.00023151,0.00032019,0.0,0 STARLINK-4614,1 53741U 22107AT  22261.58335648  .00032019  00000-0  23151-3 0  9997,2 53741  53.2133 206.3989 0000847  96.5239  55.9410 15.73217758  2236,6727.845,91.532,350.279,349.14,0.0
53741.0,STARLINK-4614,PAYLOAD,2022-09-18 22:00:00,15.73261422,0.0001059,53.2134,204.7492,102.0835,139.2774,-0.00025945,-0.00036967,0.0,0 STARLINK-4614,1 53741U 22107AT  22261.91667824 -.00036967  00000-0 -25945-3 0  9999,2 53741  53.2134 204.7492 0001059 102.0835 139.2774 15.73261422  1302,6727.72,91.53,350.298,348.87300000000016,0.0
53741.0,STARLINK-4614,PAYLOAD,2022-09-19 06:00:02,15.73247898,0.0001151,53.2136,203.1015,87.9391,242.4697,-0.00018877,-0.00027081,0.0,0 STARLINK-4614,1 53741U 22107AT  22262.25002315 -.00027081  00000-0 -18877-3 0  9998,2 53741  53.2136 203.1015 0001151  87.9391 242.4697 15.73247898  2335,6727.759,91.53,350.398,348.849,0.0
53741.0,STARLINK-4614,PAYLOAD,2022-09-19 14:00:01,15.73196187,0.000107,53.2138,201.45,101.0259,318.2975,-0.00044442,-0.00062518,0.0,0 STARLINK-4614,1 53741U 22107AT  22262.58334491 -.00062518  00000-0 -44442-3 0  9998,2 53741  53.2138 201.4500 0001070 101.0259 318.2975 15.73196187  2388,6727.906,91.533,350.491,349.051,0.0
53741.0,STARLINK-4614,PAYLOAD,2022-09-19 22:00:00,15.73177824,0.0001114,53.2138,199.8004,102.3589,45.8573,0.00032792,0.00045608,0.0,0 STARLINK-4614,1 53741U 22107AT  22262.91667824  .00045608  00000-0  32792-3 0  9998,2 53741  53.2138 199.8004 0001114 102.3589  45.8573 15.73177824  2447,6727.958000000001,91.534,350.5730000000001,349.074,0.0
53741.0,STARLINK-4614,PAYLOAD,2022-09-20 14:00:01,15.73152637,0.0001137,53.2133,196.5012,105.5234,220.5519,2.9533000000000014e-05,3.519e-05,0.0,0 STARLINK-4614,1 53741U 22107AT  22263.58334491  .00003519  00000-0  29533-4 0  9998,2 53741  53.2133 196.5012 0001137 105.5234 220.5519 15.73152637  2540,6728.03,91.536,350.66,349.13,0.0
53741.0,STARLINK-4614,PAYLOAD,2022-09-20 22:00:01,15.73179369,0.0001104,53.2136,194.852,108.6532,306.3529,0.00024102,0.0003331,0.0,0 STARLINK-4614,1 53741U 22107AT  22263.91668981  .00033310  00000-0  24102-3 0  9997,2 53741  53.2136 194.8520 0001104 108.6532 306.3529 15.73179369  1305,6727.954000000002,91.534,350.56199999999984,349.076,0.0
53741.0,STARLINK-4614,PAYLOAD,2022-09-21 06:00:00,15.73202864,0.0001082999999999,53.2137,193.2042,96.4182,47.434,0.00012811,0.00017399,0.0,0 STARLINK-4614,1 53741U 22107AT  22264.25001157  .00017399  00000-0  12811-3 0  9994,2 53741  53.2137 193.2042 0001083  96.4182  47.4340 15.73202864  2659,6727.887,91.533,350.481,349.023,0.0
53741.0,STARLINK-4614,PAYLOAD,2022-09-21 22:00:00,15.73258801,0.0001233,53.2143,189.9034,106.4653,215.236,-0.00030869,-0.00043826,0.0,0 STARLINK-4614,1 53741U 22107AT  22264.91667824 -.00043826  00000-0 -30869-3 0  9995,2 53741  53.2143 189.9034 0001233 106.4653 215.2360 15.73258801  1301,6727.728,91.53,350.422,348.76300000000015,0.0
53741.0,STARLINK-4614,PAYLOAD,2022-09-22 06:00:00,15.731953,0.0001127999999999,53.2138,188.2553,95.7173,314.9635,0.00017167,0.00023535,0.0,0 STARLINK-4614,1 53741U 22107AT  22265.25001157  .00023535  00000-0  17167-3 0  9993,2 53741  53.2138 188.2553 0001128  95.7173 314.9635 15.73195300  2805,6727.909000000002,91.533,350.532,349.015,0.0
